{"type": "FeatureCollection", "features": [ {"type": "Feature", "properties": {"norad_id": 66416, "name": "HULIANWANG DIGUI 13E", "group": "last-30-days", "lat": -20.77138896167818, "lon": 116.8148431841733, "alt_km": 831.0761575934139, "timestamp": "2025-12-08T21:31:03.446016+00:00", "meta": {"OBJECT_NAME": "HULIANWANG DIGUI 13E", "OBJECT_ID": "2025-258E", "EPOCH": "2025-12-08T08:43:20.952480", "MEAN_MOTION": 14.20131727, "ECCENTRICITY": 0.00059242, "INCLINATION": 50.0052, "RA_OF_ASC_NODE": 280.4795, "ARG_OF_PERICENTER": 347.9368, "MEAN_ANOMALY": 12.14, "EPHEMERIS_TYPE": 0, "CLASSIFICATION_TYPE": "U", "NORAD_CAT_ID": 66416, "ELEMENT_SET_NO": 999, "REV_AT_EPOCH": 403, "BSTAR": 0.00040678029, "MEAN_MOTION_DOT": 7.15e-06, "MEAN_MOTION_DDOT": 0}, "tle": {"line1": "1 66416U 25258E   25342.36343695  .00000715  00000+0  40678-3 0  9990", "line2": "2 66416  50.0052 280.4795 0005924 347.9368  12.1400 14.20131727  4035"}}, "geometry": {"type": "Point", "coordinates": [116.8148431841733, -20.77138896167818]}}, {"type": "Feature", "properties": {"norad_id": 66417, "name": "HULIANWANG DIGUI 13F", "group": "last-30-days", "lat": -27.456090844905244, "lon": 124.07350983081535, "alt_km": 830.3038687473872, "timestamp": "2025-12-08T21:31:03.446027+00:00", "meta": {"OBJECT_NAME": "HULIANWANG DIGUI 13F", "OBJECT_ID": "2025-258F", "EPOCH": "2025-12-08T13:44:44.329056", "MEAN_MOTION": 14.20307849, "ECCENTRICITY": 0.00056434, "INCLINATION": 49.9999, "RA_OF_ASC_NODE": 279.5633, "ARG_OF_PERICENTER": 346.8249, "MEAN_ANOMALY": 13.2514, "EPHEMERIS_TYPE": 0, "CLASSIFICATION_TYPE": "U", "NORAD_CAT_ID": 66417, "ELEMENT_SET_NO": 999, "REV_AT_EPOCH": 406, "BSTAR": 0.00035158092, "MEAN_MOTION_DOT": 5.99e-06, "MEAN_MOTION_DDOT": 0}, "tle": {"line1": "1 66417U 25258F   25342.57273529  .00000599  00000+0  35158-3 0  9999", "line2": "2 66417  49.9999 279.5633 0005643 346.8249  13.2514 14.20307849  4068"}}, "geometry": {"type": "Point", "coordinates": [124.07350983081535, -27.456090844905244]}}, {"type": "Feature", "properties": {"norad_id": 66418, "name": "HULIANWANG DIGUI 13G", "group": "last-30-days", "lat": -44.009597722146616, "lon": 152.36364652500362, "alt_km": 827.9087844513278, "timestamp": "2025-12-08T21:31:03.446037+00:00", "meta": {"OBJECT_NAME": "HULIANWANG DIGUI 13G", "OBJECT_ID": "2025-258G", "EPOCH": "2025-12-08T13:36:58.304736", "MEAN_MOTION": 14.20782766, "ECCENTRICITY": 0.00059872, "INCLINATION": 49.9993, "RA_OF_ASC_NODE": 279.538, "ARG_OF_PERICENTER": 346.7253, "MEAN_ANOMALY": 13.35, "EPHEMERIS_TYPE": 0, "CLASSIFICATION_TYPE": "U", "NORAD_CAT_ID": 66418, "ELEMENT_SET_NO": 999, "REV_AT_EPOCH": 406, "BSTAR": 0.00030017826, "MEAN_MOTION_DOT": 4.94e-06, "MEAN_MOTION_DDOT": 0}, "tle": {"line1": "1 66418U 25258G   25342.56734149  .00000494  00000+0  30018-3 0  9993", "line2": "2 66418  49.9993 279.5380 0005987 346.7253  13.3500 14.20782766  4068"}}, "geometry": {"type": "Point", "coordinates": [152.36364652500362, -44.009597722146616]}}, {"type": "Feature", "properties": {"norad_id": 66419, "name": "HULIANWANG DIGUI 13H", "group": "last-30-days", "lat": -47.6550044422571, "lon": 165.24739703714926, "alt_km": 826.6580894486942, "timestamp": "2025-12-08T21:31:03.446047+00:00", "meta": {"OBJECT_NAME": "HULIANWANG DIGUI 13H", "OBJECT_ID": "2025-258H", "EPOCH": "2025-12-08T10:11:43.764576", "MEAN_MOTION": 14.2089678, "ECCENTRICITY": 0.00052731, "INCLINATION": 50.0007, "RA_OF_ASC_NODE": 280.1123, "ARG_OF_PERICENTER": 342.4085, "MEAN_ANOMALY": 17.6643, "EPHEMERIS_TYPE": 0, "CLASSIFICATION_TYPE": "U", "NORAD_CAT_ID": 66419, "ELEMENT_SET_NO": 999, "REV_AT_EPOCH": 404, "BSTAR": 0.00028195579, "MEAN_MOTION_DOT": 4.56e-06, "MEAN_MOTION_DDOT": 0}, "tle": {"line1": "1 66419U 25258H   25342.42481209  .00000456  00000+0  28196-3 0  9997", "line2": "2 66419  50.0007 280.1123 0005273 342.4085  17.6643 14.20896780  4040"}}, "geometry": {"type": "Point", "coordinates": [165.24739703714926, -47.6550044422571]}}, {"type": "Feature", "properties": {"norad_id": 66420, "name": "HULIANWANG DIGUI 13J", "group": "last-30-days", "lat": -49.48659375138494, "lon": 177.40674823082304, "alt_km": 826.1539411966487, "timestamp": "2025-12-08T21:31:03.446060+00:00", "meta": {"OBJECT_NAME": "HULIANWANG DIGUI 13J", "OBJECT_ID": "2025-258J", "EPOCH": "2025-12-08T08:28:13.755936", "MEAN_MOTION": 14.2106919, "ECCENTRICITY": 0.00048643, "INCLINATION": 50.0024, "RA_OF_ASC_NODE": 280.4093, "ARG_OF_PERICENTER": 350.6291, "MEAN_ANOMALY": 9.4529, "EPHEMERIS_TYPE": 0, "CLASSIFICATION_TYPE": "U", "NORAD_CAT_ID": 66420, "ELEMENT_SET_NO": 999, "REV_AT_EPOCH": 402, "BSTAR": 0.00028046556, "MEAN_MOTION_DOT": 4.54e-06, "MEAN_MOTION_DDOT": 0}, "tle": {"line1": "1 66420U 25258J   25342.35293699  .00000454  00000+0  28047-3 0  9998", "line2": "2 66420  50.0024 280.4093 0004864 350.6291   9.4529 14.21069190  4023"}}, "geometry": {"type": "Point", "coordinates": [177.40674823082304, -49.48659375138494]}}, {"type": "Feature", "properties": {"norad_id": 66421, "name": "CZ-12 R/B", "group": "last-30-days", "lat": -44.502751277211004, "lon": -140.99600437299733, "alt_km": 730.6548710899533, "timestamp": "2025-12-08T21:31:03.446071+00:00", "meta": {"OBJECT_NAME": "CZ-12 R/B", "OBJECT_ID": "2025-258K", "EPOCH": "2025-12-08T13:30:35.373024", "MEAN_MOTION": 14.4232198, "ECCENTRICITY": 0.00645125, "INCLINATION": 49.9961, "RA_OF_ASC_NODE": 276.0723, "ARG_OF_PERICENTER": 234.3839, "MEAN_ANOMALY": 125.1061, "EPHEMERIS_TYPE": 0, "CLASSIFICATION_TYPE": "U", "NORAD_CAT_ID": 66421, "ELEMENT_SET_NO": 999, "REV_AT_EPOCH": 411, "BSTAR": 0.0001561766, "MEAN_MOTION_DOT": 3.62e-06, "MEAN_MOTION_DDOT": 0}, "tle": {"line1": "1 66421U 25258K   25342.56290941  .00000362  00000+0  15618-3 0  9997", "line2": "2 66421  49.9961 276.0723 0064512 234.3839 125.1061 14.42321980  4112"}}, "geometry": {"type": "Point", "coordinates": [-140.99600437299733, -44.502751277211004]}}, {"type": "Feature", "properties": {"norad_id": 66422, "name": "STARLINK-35617", "group": "last-30-days", "lat": -15.002453733743865, "lon": -93.03255448371124, "alt_km": 444.8460494269457, "timestamp": "2025-12-08T21:31:03.446082+00:00", "meta": {"OBJECT_NAME": "STARLINK-35617", "OBJECT_ID": "2025-259A", "EPOCH": "2025-12-08T12:51:52.412256", "MEAN_MOTION": 15.40691452, "ECCENTRICITY": 0.00012248, "INCLINATION": 43.0031, "RA_OF_ASC_NODE": 72.3335, "ARG_OF_PERICENTER": 249.5748, "MEAN_ANOMALY": 110.4978, "EPHEMERIS_TYPE": 0, "CLASSIFICATION_TYPE": "U", "NORAD_CAT_ID": 66422, "ELEMENT_SET_NO": 999, "REV_AT_EPOCH": 551, "BSTAR": 0.0020061466, "MEAN_MOTION_DOT": 0.00084406, "MEAN_MOTION_DDOT": 0}, "tle": {"line1": "1 66422U 25259A   25342.53602329  .00084406  00000+0  20061-2 0  9991", "line2": "2 66422  43.0031  72.3335 0001224 249.5748 110.4978 15.40691452  5512"}}, "geometry": {"type": "Point", "coordinates": [-93.03255448371124, -15.002453733743865]}}, {"type": "Feature", "properties": {"norad_id": 66423, "name": "STARLINK-35618", "group": "last-30-days", "lat": -22.826800908391796, "lon": -82.9203650706133, "alt_km": 445.854111781131, "timestamp": "2025-12-08T21:31:03.446092+00:00", "meta": {"OBJECT_NAME": "STARLINK-35618", "OBJECT_ID": "2025-259B", "EPOCH": "2025-12-08T14:00:01.999872", "MEAN_MOTION": 15.40639723, "ECCENTRICITY": 0.00012604, "INCLINATION": 43.0004, "RA_OF_ASC_NODE": 72.0329, "ARG_OF_PERICENTER": 271.8772, "MEAN_ANOMALY": 3.4952, "EPHEMERIS_TYPE": 0, "CLASSIFICATION_TYPE": "U", "NORAD_CAT_ID": 66423, "ELEMENT_SET_NO": 999, "REV_AT_EPOCH": 561, "BSTAR": 0.0015073905, "MEAN_MOTION_DOT": 0.00063059, "MEAN_MOTION_DDOT": 0}, "tle": {"line1": "1 66423U 25259B   25342.58335648  .00063059  00000+0  15074-2 0  9993", "line2": "2 66423  43.0004  72.0329 0001260 271.8772   3.4952 15.40639723  5615"}}, "geometry": {"type": "Point", "coordinates": [-82.9203650706133, -22.826800908391796]}}, {"type": "Feature", "properties": {"norad_id": 66424, "name": "STARLINK-35588", "group": "last-30-days", "lat": -30.0034979353664, "lon": -71.51135701027444, "alt_km": 446.6734309979638, "timestamp": "2025-12-08T21:31:03.446103+00:00", "meta": {"OBJECT_NAME": "STARLINK-35588", "OBJECT_ID": "2025-259C", "EPOCH": "2025-12-08T14:00:01.999872", "MEAN_MOTION": 15.40553693, "ECCENTRICITY": 0.00014348, "INCLINATION": 43.0005, "RA_OF_ASC_NODE": 72.0032, "ARG_OF_PERICENTER": 295.369, "MEAN_ANOMALY": 352.6003, "EPHEMERIS_TYPE": 0, "CLASSIFICATION_TYPE": "U", "NORAD_CAT_ID": 66424, "ELEMENT_SET_NO": 999, "REV_AT_EPOCH": 561, "BSTAR": 0.0022634117, "MEAN_MOTION_DOT": 0.00094967, "MEAN_MOTION_DDOT": 0}, "tle": {"line1": "1 66424U 25259C   25342.58335648  .00094967  00000+0  22634-2 0  9996", "line2": "2 66424  43.0005  72.0032 0001434 295.3690 352.6003 15.40553693  5618"}}, "geometry": {"type": "Point", "coordinates": [-71.51135701027444, -30.0034979353664]}}, {"type": "Feature", "properties": {"norad_id": 66425, "name": "STARLINK-35555", "group": "last-30-days", "lat": -35.99281383258647, "lon": -58.623331467279826, "alt_km": 446.50055354434244, "timestamp": "2025-12-08T21:31:03.446113+00:00", "meta": {"OBJECT_NAME": "STARLINK-35555", "OBJECT_ID": "2025-259D", "EPOCH": "2025-12-08T14:00:01.999872", "MEAN_MOTION": 15.40649227, "ECCENTRICITY": 0.00012172, "INCLINATION": 43.0005, "RA_OF_ASC_NODE": 71.9712, "ARG_OF_PERICENTER": 277.6865, "MEAN_ANOMALY": 22.5605, "EPHEMERIS_TYPE": 0, "CLASSIFICATION_TYPE": "U", "NORAD_CAT_ID": 66425, "ELEMENT_SET_NO": 999, "REV_AT_EPOCH": 561, "BSTAR": 0.0014711866, "MEAN_MOTION_DOT": 0.00061544, "MEAN_MOTION_DDOT": 0}, "tle": {"line1": "1 66425U 25259D   25342.58335648  .00061544  00000+0  14712-2 0  9990", "line2": "2 66425  43.0005  71.9712 0001217 277.6865  22.5605 15.40649227  5618"}}, "geometry": {"type": "Point", "coordinates": [-58.623331467279826, -35.99281383258647]}}]}